{
  "type": "FeatureCollection",
  "features": [
    {
      "type": "Feature",
      "properties": {
        "norad_id": 31025,
        "name": "FENGYUN 1C DEB",
        "group": "fengyun-1c-debris",
        "lat": 75.63979549766603,
        "lon": -160.57105241086086,
        "alt_km": 852.1454888319622,
        "timestamp": "2025-12-19T06:59:44.188756+00:00",
        "meta_object_name": "FENGYUN 1C DEB",
        "meta_object_id": "1999-025BDT",
        "meta_epoch": "2025-12-07T05:28:07.771008",
        "meta_mean_motion": 14.20521805,
        "meta_eccentricity": 0.01734931,
        "meta_inclination": 98.58,
        "meta_ra_of_asc_node": 331.5793,
        "meta_arg_of_pericenter": 28.741,
        "meta_mean_anomaly": 332.3194,
        "meta_ephemeris_type": 0,
        "meta_classification_type": "U",
        "meta_norad_cat_id": 31025,
        "meta_element_set_no": 999,
        "meta_rev_at_epoch": 64287,
        "meta_bstar": 0.0012507545,
        "meta_mean_motion_dot": 3.084e-05,
        "meta_mean_motion_ddot": 0,
        "tle_line1": "1 31025U 99025BDT 25341.22786772  .00003084  00000+0  12508-2 0  9994",
        "tle_line2": "2 31025  98.5800 331.5793 0173493  28.7410 332.3194 14.20521805642873"
      },
      "geometry": {
        "type": "Point",
        "coordinates": [
          -160.57105241086086,
          75.63979549766603
        ]
      }
    },
    {
      "type": "Feature",
      "properties": {
        "norad_id": 31026,
        "name": "FENGYUN 1C DEB",
        "group": "fengyun-1c-debris",
        "lat": -49.743919323562075,
        "lon": -61.06481960860821,
        "alt_km": 1038.7404245389744,
        "timestamp": "2025-12-19T06:59:44.188766+00:00",
        "meta_object_name": "FENGYUN 1C DEB",
        "meta_object_id": "1999-025BDU",
        "meta_epoch": "2025-12-16T14:07:08.116896",
        "meta_mean_motion": 13.83400412,
        "meta_eccentricity": 0.01344959,
        "meta_inclination": 98.7801,
        "meta_ra_of_asc_node": 285.8947,
        "meta_arg_of_pericenter": 172.0946,
        "meta_mean_anomaly": 1.2766,
        "meta_ephemeris_type": 0,
        "meta_classification_type": "U",
        "meta_norad_cat_id": 31026,
        "meta_element_set_no": 999,
        "meta_rev_at_epoch": 68079,
        "meta_bstar": 0.00014906948,
        "meta_mean_motion_dot": 1.36e-06,
        "meta_mean_motion_ddot": 0,
        "tle_line1": "1 31026U 99025BDU 25350.58828839  .00000136  00000+0  14907-3 0  9996",
        "tle_line2": "2 31026  98.7801 285.8947 0134495 172.0946   1.2766 13.83400412680793"
      },
      "geometry": {
        "type": "Point",
        "coordinates": [
          -61.06481960860821,
          -49.743919323562075
        ]
      }
    },
    {
      "type": "Feature",
      "properties": {
        "norad_id": 31028,
        "name": "FENGYUN 1C DEB",
        "group": "fengyun-1c-debris",
        "lat": 81.24439479123892,
        "lon": -171.1460817468078,
        "alt_km": 1044.0212714512463,
        "timestamp": "2025-12-19T06:59:44.188776+00:00",
        "meta_object_name": "FENGYUN 1C DEB",
        "meta_object_id": "1999-025BDW",
        "meta_epoch": "2025-12-16T00:45:35.214048",
        "meta_mean_motion": 13.89074855,
        "meta_eccentricity": 0.01643907,
        "meta_inclination": 98.7052,
        "meta_ra_of_asc_node": 281.6698,
        "meta_arg_of_pericenter": 285.3135,
        "meta_mean_anomaly": 72.9908,
        "meta_ephemeris_type": 0,
        "meta_classification_type": "U",
        "meta_norad_cat_id": 31028,
        "meta_element_set_no": 999,
        "meta_rev_at_epoch": 62049,
        "meta_bstar": 0.0002880402,
        "meta_mean_motion_dot": 3.48e-06,
        "meta_mean_motion_ddot": 0,
        "tle_line1": "1 31028U 99025BDW 25350.03165757  .00000348  00000+0  28804-3 0  9997",
        "tle_line2": "2 31028  98.7052 281.6698 0164390 285.3135  72.9908 13.89074855620493"
      },
      "geometry": {
        "type": "Point",
        "coordinates": [
          -171.1460817468078,
          81.24439479123892
        ]
      }
    },
    {
      "type": "Feature",
      "properties": {
        "norad_id": 31029,
        "name": "FENGYUN 1C DEB",
        "group": "fengyun-1c-debris",
        "lat": -3.4374993004099887,
        "lon": -109.10923799054902,
        "alt_km": 746.2138835373116,
        "timestamp": "2025-12-19T06:59:44.188787+00:00",
        "meta_object_name": "FENGYUN 1C DEB",
        "meta_object_id": "1999-025BDX",
        "meta_epoch": "2025-12-18T16:14:00.266208",
        "meta_mean_motion": 14.34333727,
        "meta_eccentricity": 0.00900867,
        "meta_inclination": 98.8585,
        "meta_ra_of_asc_node": 249.7238,
        "meta_arg_of_pericenter": 56.6035,
        "meta_mean_anomaly": 6.6271,
        "meta_ephemeris_type": 0,
        "meta_classification_type": "U",
        "meta_norad_cat_id": 31029,
        "meta_element_set_no": 999,
        "meta_rev_at_epoch": 97881,
        "meta_bstar": 0.00026363888,
        "meta_mean_motion_dot": 7.29e-06,
        "meta_mean_motion_ddot": 0,
        "tle_line1": "1 31029U 99025BDX 25352.67639197  .00000729  00000+0  26364-3 0  9996",
        "tle_line2": "2 31029  98.8585 249.7238 0090086  56.6035   6.6271 14.34333727978815"
      },
      "geometry": {
        "type": "Point",
        "coordinates": [
          -109.10923799054902,
          -3.4374993004099887
        ]
      }
    },
    {
      "type": "Feature",
      "properties": {
        "norad_id": 31030,
        "name": "FENGYUN 1C DEB",
        "group": "fengyun-1c-debris",
        "lat": -70.14311345257443,
        "lon": 80.48724885979051,
        "alt_km": 834.6858407238233,
        "timestamp": "2025-12-19T06:59:44.188797+00:00",
        "meta_object_name": "FENGYUN 1C DEB",
        "meta_object_id": "1999-025BDY",
        "meta_epoch": "2025-12-18T23:28:58.152576",
        "meta_mean_motion": 14.23696496,
        "meta_eccentricity": 0.00274437,
        "meta_inclination": 98.7667,
        "meta_ra_of_asc_node": 54.8799,
        "meta_arg_of_pericenter": 66.4587,
        "meta_mean_anomaly": 58.1936,
        "meta_ephemeris_type": 0,
        "meta_classification_type": "U",
        "meta_norad_cat_id": 31030,
        "meta_element_set_no": 999,
        "meta_rev_at_epoch": 96793,
        "meta_bstar": 0.00069388228,
        "meta_mean_motion_dot": 1.546e-05,
        "meta_mean_motion_ddot": 0,
        "tle_line1": "1 31030U 99025BDY 25352.97845084  .00001546  00000+0  69388-3 0  9996",
        "tle_line2": "2 31030  98.7667  54.8799 0027443  66.4587  58.1936 14.23696496967936"
      },
      "geometry": {
        "type": "Point",
        "coordinates": [
          80.48724885979051,
          -70.14311345257443
        ]
      }
    },
    {
      "type": "Feature",
      "properties": {
        "norad_id": 31031,
        "name": "FENGYUN 1C DEB",
        "group": "fengyun-1c-debris",
        "lat": -47.073810863297474,
        "lon": 80.67693347263463,
        "alt_km": 818.6834977463132,
        "timestamp": "2025-12-19T06:59:44.188807+00:00",
        "meta_object_name": "FENGYUN 1C DEB",
        "meta_object_id": "1999-025BDZ",
        "meta_epoch": "2025-12-15T06:19:29.672832",
        "meta_mean_motion": 14.20989204,
        "meta_eccentricity": 0.00278558,
        "meta_inclination": 99.0717,
        "meta_ra_of_asc_node": 266.4341,
        "meta_arg_of_pericenter": 179.1838,
        "meta_mean_anomaly": 334.5534,
        "meta_ephemeris_type": 0,
        "meta_classification_type": "U",
        "meta_norad_cat_id": 31031,
        "meta_element_set_no": 999,
        "meta_rev_at_epoch": 96890,
        "meta_bstar": 0.00042975182,
        "meta_mean_motion_dot": 8.88e-06,
        "meta_mean_motion_ddot": 0,
        "tle_line1": "1 31031U 99025BDZ 25349.26353788  .00000888  00000+0  42975-3 0  9991",
        "tle_line2": "2 31031  99.0717 266.4341 0027855 179.1838 334.5534 14.20989204968901"
      },
      "geometry": {
        "type": "Point",
        "coordinates": [
          80.67693347263463,
          -47.073810863297474
        ]
      }
    },
    {
      "type": "Feature",
      "properties": {
        "norad_id": 31032,
        "name": "FENGYUN 1C DEB",
        "group": "fengyun-1c-debris",
        "lat": 15.21628889781781,
        "lon": -175.09728890429193,
        "alt_km": 788.477473562677,
        "timestamp": "2025-12-19T06:59:44.188817+00:00",
        "meta_object_name": "FENGYUN 1C DEB",
        "meta_object_id": "1999-025BEA",
        "meta_epoch": "2025-12-18T18:29:35.310048",
        "meta_mean_motion": 14.02222323,
        "meta_eccentricity": 0.01392008,
        "meta_inclination": 99.3983,
        "meta_ra_of_asc_node": 1.7837,
        "meta_arg_of_pericenter": 179.6236,
        "meta_mean_anomaly": 236.9521,
        "meta_ephemeris_type": 0,
        "meta_classification_type": "U",
        "meta_norad_cat_id": 31032,
        "meta_element_set_no": 999,
        "meta_rev_at_epoch": 95066,
        "meta_bstar": 0.001077316,
        "meta_mean_motion_dot": 1.749e-05,
        "meta_mean_motion_ddot": 0,
        "tle_line1": "1 31032U 99025BEA 25352.77054757  .00001749  00000+0  10773-2 0  9993",
        "tle_line2": "2 31032  99.3983   1.7837 0139200 179.6236 236.9521 14.02222323950662"
      },
      "geometry": {
        "type": "Point",
        "coordinates": [
          -175.09728890429193,
          15.21628889781781
        ]
      }
    }
  ]
}